ONEWEB-0210             
1 48787U 21045W   24235.93216255  .00000224  00000+0  56194-3 0  9990
2 48787  87.9046  31.1577 0000985  83.5731 276.5512 13.15547804157114
ONEWEB-0214             
1 48788U 21045X   24236.47407235  .00000003  00000+0 -26083-4 0  9992
2 48788  87.9047  31.0389 0001224  79.7128 280.4140 13.15548300158271
ONEWEB-0221             
1 48789U 21045Y   24235.94800841  .00000077  00000+0  17063-3 0  9991
2 48789  87.9050  31.1632 0001573 101.6919 258.4388 13.15549591157178
ONEWEB-0213             
1 48790U 21045Z   24235.93691411 -.00000018  00000+0 -81273-4 0  9995
2 48790  87.9049  31.1779 0001413 101.1885 258.9404 13.15548453157237
ONEWEB-0212             
1 48791U 21045AA  24236.52240382  .00000038  00000+0  66080-4 0  9998
2 48791  87.9053  31.0454 0001828  95.1623 264.9716 13.15548424158449
ONEWEB-0227             
1 48792U 21045AB  24236.14132183 -.00000045  00000+0 -15350-3 0  9999
2 48792  87.9051  31.1363 0001662  98.2693 261.8625 13.15548509158332
ONEWEB-0226             
1 48793U 21045AC  24236.51527175  .00000127  00000+0  30210-3 0  9991
2 48793  87.9050  31.0680 0001184  94.6961 265.4304 13.15548007158348
ONEWEB-0224             
1 48794U 21045AD  24235.94642549  .00000102  00000+0  23595-3 0  9992
2 48794  87.9053  31.2049 0002181 124.8844 235.2491 13.15548641157072
